STARLINK-33827          
1 63798U 25091Z   25346.28009452  .00039409  00000+0  14332-2 0  9999
2 63798  42.9999 186.2052 0001566 293.8670  66.2018 15.27598373 35533
STARLINK-33899          
1 63799U 25091AA  25346.27238332  .00032039  00000+0  11681-2 0  9996
2 63799  42.9999 186.1439 0001592 285.0230  75.0445 15.27596996 35649
STARLINK-33900          
1 63800U 25091AB  25345.61466216  .00025337  00000+0  92646-3 0  9994
2 63800  42.9968 189.8037 0000934 276.7162  83.3583 15.27602506 35541
STARLINK-33975          
1 63802U 25091AC  25346.25440089  .00002350  00000+0  94893-4 0  9994
2 63802  42.9983 186.0003 0000386   1.7557 358.3296 15.27577525 35646
STARLINK-33951          
1 63803U 25091AD  25346.25952910  .00029195  00000+0  10664-2 0  9994
2 63803  42.9991 186.0418 0002057 274.1692  85.8925 15.27575551 35580
STARLINK-33909          
1 63804U 25092A   25346.22802955  .00050642  00000+0  18355-2 0  9992
2 63804  43.0041 306.9133 0001750 263.0029  97.0623 15.27610226 35237
STARLINK-34029          
1 63805U 25092B   25346.28827307  .00055364  00000+0  20061-2 0  9990
2 63805  43.0040 306.5000 0002591 254.9930 105.0635 15.27583318 35245
STARLINK-34102          
1 63806U 25092C   25346.28698949  .00035173  00000+0  12817-2 0  9995
2 63806  43.0032 306.4939 0002184 262.8008  97.2595 15.27575927 35298
STARLINK-34109          
1 63807U 25092D   25346.17919787  .00036128  00000+0  13172-2 0  9996
2 63807  43.0008 306.5379 0000713 237.6073 122.4710 15.27550836 35235
STARLINK-34091          
1 63808U 25092E   25346.27027832  .00045156  00000+0  16402-2 0  9999
2 63808  43.0016 306.3625 0003282 256.3731 103.6756 15.27581676 35293
STARLINK-34095          
1 63809U 25092F   25346.22673750  .00037503  00000+0  13654-2 0  9994
2 63809  43.0029 306.9031 0002490 259.0460 101.0111 15.27580128 35236
STARLINK-34127          
1 63810U 25092G   25346.25229682  .00038190  00000+0  13905-2 0  9992
2 63810  42.9953 306.2231 0002080 274.9522  85.1092 15.27570551 35247
STARLINK-34110          
1 63811U 25092H   25346.27286312  .00048937  00000+0  17026-2 0  9996
2 63811  42.9932 306.3881 0010397 291.2646  68.7096 15.28915293 35299
STARLINK-34101          
1 63812U 25092J   25346.29712450  .00023229  00000+0  85233-3 0  9999
2 63812  43.0022 305.6995 0001484 282.3968  77.6717 15.27528607 35191
STARLINK-34065          
1 63813U 25092K   25346.23606347  .00056072  00000+0  20315-2 0  9992
2 63813  42.9998 302.5962 0003586 246.3632 113.6843 15.27579218 35224
STARLINK-34057          
1 63814U 25092L   25346.23944416  .00055550  00000+0  20113-2 0  9991
2 63814  43.0028 306.1269 0002768 257.4943 102.5599 15.27606858 35248
