[{"OBJECT_NAME":"STARLINK-33827","OBJECT_ID":"2025-091Z","EPOCH":"2025-12-12T06:43:20.166528","MEAN_MOTION":15.27598373,"ECCENTRICITY":0.00015669,"INCLINATION":42.9999,"RA_OF_ASC_NODE":186.2052,"ARG_OF_PERICENTER":293.867,"MEAN_ANOMALY":66.2018,"EPHEMERIS_TYPE":0,"CLASSIFICATION_TYPE":"U","NORAD_CAT_ID":63798,"ELEMENT_SET_NO":999,"REV_AT_EPOCH":3553,"BSTAR":0.0014331615,"MEAN_MOTION_DOT":0.00039409,"MEAN_MOTION_DDOT":0},{"OBJECT_NAME":"STARLINK-33899","OBJECT_ID":"2025-091AA","EPOCH":"2025-12-12T06:32:13.918848","MEAN_MOTION":15.27596996,"ECCENTRICITY":0.00015924,"INCLINATION":42.9999,"RA_OF_ASC_NODE":186.1439,"ARG_OF_PERICENTER":285.023,"MEAN_ANOMALY":75.0445,"EPHEMERIS_TYPE":0,"CLASSIFICATION_TYPE":"U","NORAD_CAT_ID":63799,"ELEMENT_SET_NO":999,"REV_AT_EPOCH":3564,"BSTAR":0.0011681424,"MEAN_MOTION_DOT":0.00032039,"MEAN_MOTION_DDOT":0},{"OBJECT_NAME":"STARLINK-33900","OBJECT_ID":"2025-091AB","EPOCH":"2025-12-11T14:45:06.810624","MEAN_MOTION":15.27602506,"ECCENTRICITY":9.349e-5,"INCLINATION":42.9968,"RA_OF_ASC_NODE":189.8037,"ARG_OF_PERICENTER":276.7162,"MEAN_ANOMALY":83.3583,"EPHEMERIS_TYPE":0,"CLASSIFICATION_TYPE":"U","NORAD_CAT_ID":63800,"ELEMENT_SET_NO":999,"REV_AT_EPOCH":3554,"BSTAR":0.00092646225,"MEAN_MOTION_DOT":0.00025337,"MEAN_MOTION_DDOT":0},{"OBJECT_NAME":"STARLINK-33975","OBJECT_ID":"2025-091AC","EPOCH":"2025-12-12T06:06:20.236896","MEAN_MOTION":15.27577525,"ECCENTRICITY":3.866e-5,"INCLINATION":42.9983,"RA_OF_ASC_NODE":186.0003,"ARG_OF_PERICENTER":1.7557,"MEAN_ANOMALY":358.3296,"EPHEMERIS_TYPE":0,"CLASSIFICATION_TYPE":"U","NORAD_CAT_ID":63802,"ELEMENT_SET_NO":999,"REV_AT_EPOCH":3564,"BSTAR":9.4892626e-5,"MEAN_MOTION_DOT":2.35e-5,"MEAN_MOTION_DDOT":0},{"OBJECT_NAME":"STARLINK-33951","OBJECT_ID":"2025-091AD","EPOCH":"2025-12-12T06:13:43.314240","MEAN_MOTION":15.27575551,"ECCENTRICITY":0.00020571,"INCLINATION":42.9991,"RA_OF_ASC_NODE":186.0418,"ARG_OF_PERICENTER":274.1692,"MEAN_ANOMALY":85.8925,"EPHEMERIS_TYPE":0,"CLASSIFICATION_TYPE":"U","NORAD_CAT_ID":63803,"ELEMENT_SET_NO":999,"REV_AT_EPOCH":3558,"BSTAR":0.0010663831,"MEAN_MOTION_DOT":0.00029195,"MEAN_MOTION_DDOT":0},{"OBJECT_NAME":"STARLINK-33909","OBJECT_ID":"2025-092A","EPOCH":"2025-12-12T05:28:21.753120","MEAN_MOTION":15.27610226,"ECCENTRICITY":0.00017504,"INCLINATION":43.0041,"RA_OF_ASC_NODE":306.9133,"ARG_OF_PERICENTER":263.0029,"MEAN_ANOMALY":97.0623,"EPHEMERIS_TYPE":0,"CLASSIFICATION_TYPE":"U","NORAD_CAT_ID":63804,"ELEMENT_SET_NO":999,"REV_AT_EPOCH":3523,"BSTAR":0.0018355003,"MEAN_MOTION_DOT":0.00050642,"MEAN_MOTION_DDOT":0},{"OBJECT_NAME":"STARLINK-34029","OBJECT_ID":"2025-092B","EPOCH":"2025-12-12T06:55:06.793248","MEAN_MOTION":15.27583318,"ECCENTRICITY":0.0002591,"INCLINATION":43.004,"RA_OF_ASC_NODE":306.5,"ARG_OF_PERICENTER":254.993,"MEAN_ANOMALY":105.0635,"EPHEMERIS_TYPE":0,"CLASSIFICATION_TYPE":"U","NORAD_CAT_ID":63805,"ELEMENT_SET_NO":999,"REV_AT_EPOCH":3524,"BSTAR":0.0020060704,"MEAN_MOTION_DOT":0.00055364,"MEAN_MOTION_DDOT":0},{"OBJECT_NAME":"STARLINK-34102","OBJECT_ID":"2025-092C","EPOCH":"2025-12-12T06:53:15.891936","MEAN_MOTION":15.27575927,"ECCENTRICITY":0.00021848,"INCLINATION":43.0032,"RA_OF_ASC_NODE":306.4939,"ARG_OF_PERICENTER":262.8008,"MEAN_ANOMALY":97.2595,"EPHEMERIS_TYPE":0,"CLASSIFICATION_TYPE":"U","NORAD_CAT_ID":63806,"ELEMENT_SET_NO":999,"REV_AT_EPOCH":3529,"BSTAR":0.0012817371,"MEAN_MOTION_DOT":0.00035173,"MEAN_MOTION_DDOT":0},{"OBJECT_NAME":"STARLINK-34109","OBJECT_ID":"2025-092D","EPOCH":"2025-12-12T04:18:02.695968","MEAN_MOTION":15.27550836,"ECCENTRICITY":7.132e-5,"INCLINATION":43.0008,"RA_OF_ASC_NODE":306.5379,"ARG_OF_PERICENTER":237.6073,"MEAN_ANOMALY":122.471,"EPHEMERIS_TYPE":0,"CLASSIFICATION_TYPE":"U","NORAD_CAT_ID":63807,"ELEMENT_SET_NO":999,"REV_AT_EPOCH":3523,"BSTAR":0.0013171543,"MEAN_MOTION_DOT":0.00036128,"MEAN_MOTION_DDOT":0},{"OBJECT_NAME":"STARLINK-34091","OBJECT_ID":"2025-092E","EPOCH":"2025-12-12T06:29:12.046848","MEAN_MOTION":15.27581676,"ECCENTRICITY":0.00032825,"INCLINATION":43.0016,"RA_OF_ASC_NODE":306.3625,"ARG_OF_PERICENTER":256.3731,"MEAN_ANOMALY":103.6756,"EPHEMERIS_TYPE":0,"CLASSIFICATION_TYPE":"U","NORAD_CAT_ID":63808,"ELEMENT_SET_NO":999,"REV_AT_EPOCH":3529,"BSTAR":0.0016401926,"MEAN_MOTION_DOT":0.00045156,"MEAN_MOTION_DDOT":0},{"OBJECT_NAME":"STARLINK-34095","OBJECT_ID":"2025-092F","EPOCH":"2025-12-12T05:26:30.120000","MEAN_MOTION":15.27580128,"ECCENTRICITY":0.00024909,"INCLINATION":43.0029,"RA_OF_ASC_NODE":306.9031,"ARG_OF_PERICENTER":259.046,"MEAN_ANOMALY":101.0111,"EPHEMERIS_TYPE":0,"CLASSIFICATION_TYPE":"U","NORAD_CAT_ID":63809,"ELEMENT_SET_NO":999,"REV_AT_EPOCH":3523,"BSTAR":0.0013653756,"MEAN_MOTION_DOT":0.00037503,"MEAN_MOTION_DDOT":0},{"OBJECT_NAME":"STARLINK-34127","OBJECT_ID":"2025-092G","EPOCH":"2025-12-12T06:03:18.445248","MEAN_MOTION":15.27570551,"ECCENTRICITY":0.00020808,"INCLINATION":42.9953,"RA_OF_ASC_NODE":306.2231,"ARG_OF_PERICENTER":274.9522,"MEAN_ANOMALY":85.1092,"EPHEMERIS_TYPE":0,"CLASSIFICATION_TYPE":"U","NORAD_CAT_ID":63810,"ELEMENT_SET_NO":999,"REV_AT_EPOCH":3524,"BSTAR":0.0013905072,"MEAN_MOTION_DOT":0.0003819,"MEAN_MOTION_DDOT":0},{"OBJECT_NAME":"STARLINK-34110","OBJECT_ID":"2025-092H","EPOCH":"2025-12-12T06:32:55.373568","MEAN_MOTION":15.28915293,"ECCENTRICITY":0.00103977,"INCLINATION":42.9932,"RA_OF_ASC_NODE":306.3881,"ARG_OF_PERICENTER":291.2646,"MEAN_ANOMALY":68.7096,"EPHEMERIS_TYPE":0,"CLASSIFICATION_TYPE":"U","NORAD_CAT_ID":63811,"ELEMENT_SET_NO":999,"REV_AT_EPOCH":3529,"BSTAR":0.0017026033,"MEAN_MOTION_DOT":0.00048937,"MEAN_MOTION_DDOT":0},{"OBJECT_NAME":"STARLINK-34101","OBJECT_ID":"2025-092J","EPOCH":"2025-12-12T07:07:51.556800","MEAN_MOTION":15.27528607,"ECCENTRICITY":0.0001484,"INCLINATION":43.0022,"RA_OF_ASC_NODE":305.6995,"ARG_OF_PERICENTER":282.3968,"MEAN_ANOMALY":77.6717,"EPHEMERIS_TYPE":0,"CLASSIFICATION_TYPE":"U","NORAD_CAT_ID":63812,"ELEMENT_SET_NO":999,"REV_AT_EPOCH":3519,"BSTAR":0.00085233093,"MEAN_MOTION_DOT":0.00023229,"MEAN_MOTION_DDOT":0},{"OBJECT_NAME":"STARLINK-34065","OBJECT_ID":"2025-092K","EPOCH":"2025-12-12T05:39:55.883808","MEAN_MOTION":15.27579218,"ECCENTRICITY":0.00035868,"INCLINATION":42.9998,"RA_OF_ASC_NODE":302.5962,"ARG_OF_PERICENTER":246.3632,"MEAN_ANOMALY":113.6843,"EPHEMERIS_TYPE":0,"CLASSIFICATION_TYPE":"U","NORAD_CAT_ID":63813,"ELEMENT_SET_NO":999,"REV_AT_EPOCH":3522,"BSTAR":0.0020314911,"MEAN_MOTION_DOT":0.00056072,"MEAN_MOTION_DDOT":0},{"OBJECT_NAME":"STARLINK-34057","OBJECT_ID":"2025-092L","EPOCH":"2025-12-12T05:44:47.975424","MEAN_MOTION":15.27606858,"ECCENTRICITY":0.00027689,"INCLINATION":43.0028,"RA_OF_ASC_NODE":306.1269,"ARG_OF_PERICENTER":257.4943,"MEAN_ANOMALY":102.5599,"EPHEMERIS_TYPE":0,"CLASSIFICATION_TYPE":"U","NORAD_CAT_ID":63814,"ELEMENT_SET_NO":999,"REV_AT_EPOCH":3524,"BSTAR":0.0020112645,"MEAN_MOTION_DOT":0.0005555,"MEAN_MOTION_DDOT":0}]
